[{"OBJECT_NAME":"KUIPER-00149","OBJECT_ID":"2025-228X","EPOCH":"2026-03-09T21:19:04.016352","MEAN_MOTION":14.80004702,"ECCENTRICITY":0.00017534,"INCLINATION":51.9019,"RA_OF_ASC_NODE":337.2239,"ARG_OF_PERICENTER":84.5973,"MEAN_ANOMALY":275.5189,"EPHEMERIS_TYPE":0,"CLASSIFICATION_TYPE":"U","NORAD_CAT_ID":65968,"ELEMENT_SET_NO":999,"REV_AT_EPOCH":2357,"BSTAR":0.00078763897,"MEAN_MOTION_DOT":5.798e-5,"MEAN_MOTION_DDOT":0},{"OBJECT_NAME":"DMSP 5D-2 F11 DEB","OBJECT_ID":"1991-082AG","EPOCH":"2026-03-08T12:45:54.154656","MEAN_MOTION":14.85447171,"ECCENTRICITY":0.00252551,"INCLINATION":98.7479,"RA_OF_ASC_NODE":173.9606,"ARG_OF_PERICENTER":164.1191,"MEAN_ANOMALY":196.0819,"EPHEMERIS_TYPE":0,"CLASSIFICATION_TYPE":"U","NORAD_CAT_ID":28319,"ELEMENT_SET_NO":999,"REV_AT_EPOCH":13730,"BSTAR":0.0070605851,"MEAN_MOTION_DOT":0.00061687,"MEAN_MOTION_DDOT":0}]
